[{"OBJECT_NAME":"SJ-9A","OBJECT_ID":"2012-056A","EPOCH":"2026-03-09T22:26:58.349184","MEAN_MOTION":14.85226998,"ECCENTRICITY":0.00245132,"INCLINATION":97.6612,"RA_OF_ASC_NODE":44.5525,"ARG_OF_PERICENTER":221.6494,"MEAN_ANOMALY":138.2855,"EPHEMERIS_TYPE":0,"CLASSIFICATION_TYPE":"U","NORAD_CAT_ID":38860,"ELEMENT_SET_NO":999,"REV_AT_EPOCH":68485,"BSTAR":0.00020141045,"MEAN_MOTION_DOT":1.684e-5,"MEAN_MOTION_DDOT":0},{"OBJECT_NAME":"SL-14 R\/B","OBJECT_ID":"1983-037B","EPOCH":"2026-03-09T23:05:44.656224","MEAN_MOTION":14.86187856,"ECCENTRICITY":0.00176875,"INCLINATION":82.5045,"RA_OF_ASC_NODE":231.5305,"ARG_OF_PERICENTER":36.2922,"MEAN_ANOMALY":323.949,"EPHEMERIS_TYPE":0,"CLASSIFICATION_TYPE":"U","NORAD_CAT_ID":14033,"ELEMENT_SET_NO":999,"REV_AT_EPOCH":93138,"BSTAR":7.5110195e-5,"MEAN_MOTION_DOT":6.85e-6,"MEAN_MOTION_DDOT":0}]
